NORAD_CAT_ID,OBJECT_NAME,OBJECT_TYPE,EPOCH,MEAN_MOTION,ECCENTRICITY,INCLINATION,RA_OF_ASC_NODE,ARG_OF_PERICENTER,MEAN_ANOMALY,BSTAR,MEAN_MOTION_DOT,MEAN_MOTION_DDOT,TLE_LINE0,TLE_LINE1,TLE_LINE2,SEMIMAJOR_AXIS,PERIOD,APOGEE,PERIGEE,DECAYED
55634.0,STARLINK-5500,PAYLOAD,2023-03-16 22:00:00,15.57743819,0.0003242,70.0013,73.7457,266.8605,250.2892,-0.017708,-0.01187096,0.0,0 STARLINK-5500,1 55634U 23021G   23075.91667824 -.01187096  00000-0 -17708-1 0  9999,2 55634  70.0013  73.7457 0003242 266.8605 250.2892 15.57743819  1305,6772.325,92.441,396.386,391.995,0.0
55634.0,STARLINK-5500,PAYLOAD,2023-03-17 08:00:01,15.56649662,0.0003444,70.0011,72.5961,274.368,57.8818,-0.01801,-0.01161579,0.0,0 STARLINK-5500,1 55634U 23021G   23076.33334491 -.01161579  00000-0 -18010-1 0  9992,2 55634  70.0011  72.5961 0003444 274.3680  57.8818 15.56649662  4864,6775.499,92.506,399.697,395.03,0.0
55634.0,STARLINK-5500,PAYLOAD,2023-03-17 14:00:01,15.5604646,0.0003311,70.0006,71.9072,270.4906,22.0281,-0.019751,-0.01236789,0.0,0 STARLINK-5500,1 55634U 23021G   23076.58334491 -.01236789  00000-0 -19751-1 0  9998,2 55634  70.0006  71.9072 0003311 270.4906  22.0281 15.56046460  1306,6777.249,92.542,401.358,396.87,0.0
55634.0,STARLINK-5500,PAYLOAD,2023-03-17 22:00:00,15.55167063,0.0003509,70.0008,70.9898,265.6184,93.0424,-0.019482,-0.01186445,0.0,0 STARLINK-5500,1 55634U 23021G   23076.91667824 -.01186445  00000-0 -19482-1 0  9998,2 55634  70.0008  70.9898 0003509 265.6184  93.0424 15.55167063  4960,6779.804,92.595,404.048,399.29,0.0
55634.0,STARLINK-5500,PAYLOAD,2023-03-18 14:00:01,15.5346805,0.0003249,70.0005,69.1583,274.6977,213.153,-0.021644,-0.01252333,0.0,0 STARLINK-5500,1 55634U 23021G   23077.58334491 -.01252333  00000-0 -21644-1 0  9996,2 55634  70.0005  69.1583 0003249 274.6977 213.1530 15.53468050  5062,6784.746,92.696,408.816,404.407,0.0
55634.0,STARLINK-5500,PAYLOAD,2023-03-18 22:00:00,15.52599924,0.0003309,70.0007,68.2447,266.5798,284.3175,-0.021649,-0.01217108,0.0,0 STARLINK-5500,1 55634U 23021G   23077.91667824 -.01217108  00000-0 -21649-1 0  9998,2 55634  70.0007  68.2447 0003309 266.5798 284.3175 15.52599924  1303,6787.275,92.748,411.386,406.894,0.0
55634.0,STARLINK-5500,PAYLOAD,2023-03-19 06:00:02,15.51481139,0.0003054,70.0007,67.3318,272.9514,340.0842,-0.0068389,-0.00386424,0.0,0 STARLINK-5500,1 55634U 23021G   23078.25002315 -.00386424  00000-0 -68389-2 0  9994,2 55634  70.0007  67.3318 0003054 272.9514 340.0842 15.51481139  5160,6790.538,92.815,414.477,410.329,0.0
55634.0,STARLINK-5500,PAYLOAD,2023-03-19 14:00:01,15.51250598,0.000295,70.0004,66.4203,271.239,42.7699,-0.0010566,-0.00061802,0.0,0 STARLINK-5500,1 55634U 23021G   23078.58334491 -.00061802  00000-0 -10566-2 0  9997,2 55634  70.0004  66.4203 0002950 271.2390  42.7699 15.51250598  1309,6791.211,92.828,415.079,411.072,0.0
55634.0,STARLINK-5500,PAYLOAD,2023-03-19 16:00:00,15.51227337,0.0002962,70.0006,66.1925,268.7125,150.533,-0.00036746,-0.00021691,0.0,0 STARLINK-5500,1 55634U 23021G   23078.66667824 -.00021691  00000-0 -36746-3 0  9996,2 55634  70.0006  66.1925 0002962 268.7125 150.5330 15.51227337  5230,6791.279,92.83,415.155,411.132,0.0
55634.0,STARLINK-5500,PAYLOAD,2023-03-19 22:00:00,15.51220421,0.0003,70.0009,65.5091,265.2438,109.6797,0.00057275,0.00033615,0.0,0 STARLINK-5500,1 55634U 23021G   23078.91667824  .00033615  00000-0  57275-3 0  9991,2 55634  70.0009  65.5091 0003000 265.2438 109.6797 15.51220421  1306,6791.299,92.83,415.201,411.126,0.0
55634.0,STARLINK-5500,PAYLOAD,2023-03-20 08:00:01,15.51193357,0.0003022,70.0009,64.3697,274.4926,266.595,0.00091988,0.00054177,0.0,0 STARLINK-5500,1 55634U 23021G   23079.33334491  .00054177  00000-0  91988-3 0  9994,2 55634  70.0009  64.3697 0003022 274.4926 266.5950 15.51193357  5331,6791.378,92.832,415.295,411.19,0.0
55634.0,STARLINK-5500,PAYLOAD,2023-03-20 14:00:01,15.51248569,0.0003035,70.0006,63.686,271.6963,225.0544,-0.0011884,-0.0006942,0.0,0 STARLINK-5500,1 55634U 23021G   23079.58334491 -.00069420  00000-0 -11884-2 0  9996,2 55634  70.0006  63.6860 0003035 271.6963 225.0544 15.51248569  1304,6791.217,92.828,415.143,411.02,0.0
55634.0,STARLINK-5500,PAYLOAD,2023-03-20 22:00:01,15.51220293,0.0003044,70.0009,62.7747,263.9188,293.8071,0.00050983,0.0002989,0.0,0 STARLINK-5500,1 55634U 23021G   23079.91668981  .00029890  00000-0  50983-3 0  9996,2 55634  70.0009  62.7747 0003044 263.9188 293.8071 15.51220293  1306,6791.299,92.83,415.231,411.097,0.0
55634.0,STARLINK-5500,PAYLOAD,2023-03-21 00:00:02,15.51256452,0.0003099,70.0012,62.5467,265.057,37.8874,-0.00064262,-0.00037774,0.0,0 STARLINK-5500,1 55634U 23021G   23080.00002315 -.00037774  00000-0 -64262-3 0  9998,2 55634  70.0012  62.5467 0003099 265.0570  37.8874 15.51256452  5436,6791.194,92.828,415.163,410.954,0.0
55634.0,STARLINK-5500,PAYLOAD,2023-03-21 14:00:01,15.51241807,0.0003029,70.001,60.9516,269.844,49.7147,-0.00086405,-0.00050625,0.0,0 STARLINK-5500,1 55634U 23021G   23080.58335648 -.00050625  00000-0 -86405-3 0  9992,2 55634  70.0010  60.9516 0003029 269.8440  49.7147 15.51241807  1307,6791.236,92.829,415.158,411.044,0.0
55634.0,STARLINK-5500,PAYLOAD,2023-03-21 22:00:00,15.51230438,0.0003067,70.0014,60.0406,264.6461,115.7525,0.00038952,0.00022785,0.0,0 STARLINK-5500,1 55634U 23021G   23080.91667824  .00022785  00000-0  38952-3 0  9991,2 55634  70.0014  60.0406 0003067 264.6461 115.7525 15.51230438  5584,6791.269,92.83,415.217,411.052,0.0
55634.0,STARLINK-5500,PAYLOAD,2023-03-22 08:00:01,15.51190529,0.0003052,70.0014,58.9012,274.6333,271.9352,0.0010076,0.00059393,0.0,0 STARLINK-5500,1 55634U 23021G   23081.33334491  .00059393  00000-0  10076-2 0  9990,2 55634  70.0014  58.9012 0003052 274.6333 271.9352 15.51190529  5642,6791.386,92.832,415.324,411.178,0.0
55634.0,STARLINK-5500,PAYLOAD,2023-03-22 22:00:00,15.5123493,0.0003096,70.002,57.3068,264.7126,298.4363,9.0594e-05,5.162e-05,0.0,0 STARLINK-5500,1 55634U 23021G   23081.91667824  .00005162  00000-0  90594-4 0  9993,2 55634  70.0020  57.3068 0003096 264.7126 298.4363 15.51234930  5732,6791.256,92.829,415.224,411.019,0.0
55634.0,STARLINK-5500,PAYLOAD,2023-03-23 07:57:38,15.51218433,0.000259,70.0018,56.1722,259.5756,100.5139,-4.3914e-06,-4.22e-06,0.0,0 STARLINK-5500,1 55634U 23021G   23082.33169946 -.00000422  00000-0 -43914-5 0  9993,2 55634  70.0018  56.1722 0002590 259.5756 100.5139 15.51218433  5804,6791.305,92.83,414.928,411.411,0.0
55634.0,STARLINK-5500,PAYLOAD,2023-03-23 15:41:55,15.51224604,0.0002813,70.0024,55.2913,263.2731,96.8135,2.4877e-05,1.297e-05,0.0,0 STARLINK-5500,1 55634U 23021G   23082.65411944  .00001297  00000-0  24877-4 0  9991,2 55634  70.0024  55.2913 0002813 263.2731  96.8135 15.51224604  6155,6791.286,92.83,415.062,411.241,0.0
55634.0,STARLINK-5500,PAYLOAD,2023-03-24 04:04:46,15.51262866,0.0003269,70.0018,53.8821,272.0232,88.0579,0.00019809,0.00011504,0.0,0 STARLINK-5500,1 55634U 23021G   23083.16997861  .00011504  00000-0  19809-3 0  9995,2 55634  70.0018  53.8821 0003269 272.0232  88.0579 15.51262866  5932,6791.175,92.828,415.26,410.82,0.0
55634.0,STARLINK-5500,PAYLOAD,2023-03-24 10:16:12,15.51235691,0.0002922,70.0015,53.1766,275.1244,84.9608,3.9563e-05,2.161e-05,0.0,0 STARLINK-5500,1 55634U 23021G   23083.42792304  .00002161  00000-0  39563-4 0  9998,2 55634  70.0015  53.1766 0002922 275.1244  84.9608 15.51235691  5970,6791.254,92.829,415.104,411.135,0.0
55634.0,STARLINK-5500,PAYLOAD,2023-03-24 22:39:05,15.51202918,0.0003332,70.0022,51.7678,271.484,88.5965,-0.00010354,-6.237e-05,0.0,0 STARLINK-5500,1 55634U 23021G   23083.94381299 -.00006237  00000-0 -10354-3 0  9998,2 55634  70.0022  51.7678 0003332 271.4840  88.5965 15.51202918  6356,6791.35,92.831,415.478,410.952,0.0
55634.0,STARLINK-5500,PAYLOAD,2023-03-25 01:44:48,15.51200737,0.0003343,70.0023,51.415,271.4369,88.6434,-9.9725e-05,-6.013e-05,0.0,0 STARLINK-5500,1 55634U 23021G   23084.07278449 -.00006013  00000-0 -99725-4 0  9997,2 55634  70.0023  51.4150 0003343 271.4369  88.6434 15.51200737  6075,6791.356,92.831,415.492,410.951,0.0
55634.0,STARLINK-5500,PAYLOAD,2023-03-25 21:52:02,15.51120296,0.0003685,70.0039,49.1243,251.6782,108.4003,-0.00037465,-0.0002203,0.0,0 STARLINK-5500,1 55634U 23021G   23084.91114238 -.00022030  00000-0 -37465-3 0  9994,2 55634  70.0039  49.1243 0003685 251.6782 108.4003 15.51120296  6509,6791.591,92.836,415.959,410.953,0.0
55634.0,STARLINK-5500,PAYLOAD,2023-03-26 00:58:05,15.50568836,0.000282,70.0038,48.7722,267.5931,92.4932,-0.0032061,-0.00180022,0.0,0 STARLINK-5500,1 55634U 23021G   23085.04033798 -.00180022  00000-0 -32061-2 0  9992,2 55634  70.0038  48.7722 0002820 267.5931  92.4932 15.50568836  6224,6793.201,92.869,416.982,413.15,0.0
55634.0,STARLINK-5500,PAYLOAD,2023-03-26 07:09:48,15.50313186,0.0003297,70.0024,48.0647,288.706,71.3768,-0.0039761,-0.00220118,0.0,0 STARLINK-5500,1 55634U 23021G   23085.29848318 -.00220118  00000-0 -39761-2 0  9996,2 55634  70.0024  48.0647 0003297 288.7060  71.3768 15.50313186  6268,6793.948,92.884,418.053,413.573,0.0
55634.0,STARLINK-5500,PAYLOAD,2023-03-26 22:00:01,15.47892213,0.0003193,70.0027,46.3807,266.4207,299.8348,-0.026177,-0.01242166,0.0,0 STARLINK-5500,1 55634U 23021G   23085.91668981 -.01242166  00000-0 -26177-1 0  9995,2 55634  70.0027  46.3807 0003193 266.4207 299.8348 15.47892213  6351,6801.03,93.03,425.067,420.724,0.0
55634.0,STARLINK-5500,PAYLOAD,2023-03-27 14:00:01,15.46133762,0.0003304,70.0023,44.5696,267.0176,50.8778,-0.026564,-0.01190701,0.0,0 STARLINK-5500,1 55634U 23021G   23086.58334491 -.01190701  00000-0 -26564-1 0  9992,2 55634  70.0023  44.5696 0003304 267.0176  50.8778 15.46133762  1307,6806.186,93.136,430.3,425.802,0.0
55634.0,STARLINK-5500,PAYLOAD,2023-03-27 22:00:00,15.45320092,0.0003484,70.0026,43.666,265.889,106.2864,-0.028782,-0.01248746,0.0,0 STARLINK-5500,1 55634U 23021G   23086.91667824 -.01248746  00000-0 -28782-1 0  9995,2 55634  70.0026  43.6660 0003484 265.8890 106.2864 15.45320092  1304,6808.575,93.185,432.812,428.068,0.0
